NORAD_CAT_ID,OBJECT_NAME,OBJECT_TYPE,EPOCH,MEAN_MOTION,ECCENTRICITY,INCLINATION,RA_OF_ASC_NODE,ARG_OF_PERICENTER,MEAN_ANOMALY,BSTAR,MEAN_MOTION_DOT,MEAN_MOTION_DDOT,TLE_LINE0,TLE_LINE1,TLE_LINE2,SEMIMAJOR_AXIS,PERIOD,APOGEE,PERIGEE,DECAYED
52271.0,STARLINK-3788,PAYLOAD,2024-02-29 13:59:42,15.08845016,0.0001211,53.217,187.0978,94.077,266.036,4.6699e-05,4.56e-06,0.0,0 STARLINK-3788,1 52271U 22041L   24060.58312845  .00000456  00000-0  46699-4 0  9997,2 52271  53.2170 187.0978 0001211  94.0770 266.0360 15.08845016102788,6917.865,95.437,540.568,538.892,0.0
52271.0,STARLINK-3788,PAYLOAD,2024-02-29 15:35:05,15.08846156,0.0001208,53.2156,186.8003,92.3169,267.7961,4.2483e-05,3.88e-06,0.0,0 STARLINK-3788,1 52271U 22041L   24060.64936683  .00000388  00000-0  42483-4 0  9997,2 52271  53.2156 186.8003 0001208  92.3169 267.7961 15.08846156102799,6917.862,95.437,540.562,538.891,0.0
52271.0,STARLINK-3788,PAYLOAD,2024-03-01 12:15:06,15.08835563,0.0001343,53.2172,182.9382,109.371,250.7427,1.823e-05,2e-08,0.0,0 STARLINK-3788,1 52271U 22041L   24061.51049660  .00000002  00000-0  18230-4 0  9990,2 52271  53.2172 182.9382 0001343 109.3710 250.7427 15.08835563104145,6917.894,95.438,540.688,538.83,0.0
52271.0,STARLINK-3788,PAYLOAD,2024-03-01 13:50:30,15.08836968,0.000146,53.2172,182.6419,114.52,245.5944,4.0994e-05,3.64e-06,0.0,0 STARLINK-3788,1 52271U 22041L   24061.57673612  .00000364  00000-0  40994-4 0  9999,2 52271  53.2172 182.6419 0001460 114.5200 245.5944 15.08836968102936,6917.89,95.438,540.765,538.745,0.0
52271.0,STARLINK-3788,PAYLOAD,2024-03-01 15:25:52,15.08840586,0.0001266,53.2164,182.3418,100.3424,259.7711,5.1528e-05,5.32e-06,0.0,0 STARLINK-3788,1 52271U 22041L   24061.64297369  .00000532  00000-0  51528-4 0  9990,2 52271  53.2164 182.3418 0001266 100.3424 259.7711 15.08840586102949,6917.879,95.438,540.619,538.868,0.0
52271.0,STARLINK-3788,PAYLOAD,2024-03-02 12:05:53,15.08845091,0.0001139,53.2162,178.4766,93.5476,266.5647,8.5342e-05,1.071e-05,0.0,0 STARLINK-3788,1 52271U 22041L   24062.50408721  .00001071  00000-0  85342-4 0  9992,2 52271  53.2162 178.4766 0001139  93.5476 266.5647 15.08845091104298,6917.865,95.437,540.518,538.942,0.0
52271.0,STARLINK-3788,PAYLOAD,2024-03-02 13:41:15,15.08860059,0.0001443,53.2163,178.1794,90.612,269.5038,-7.5984e-05,-1.498e-05,0.0,0 STARLINK-3788,1 52271U 22041L   24062.57032268 -.00001498  00000-0 -75984-4 0  9994,2 52271  53.2163 178.1794 0001443  90.6120 269.5038 15.08860059103083,6917.819,95.436,540.682,538.686,0.0
52271.0,STARLINK-3788,PAYLOAD,2024-03-02 15:16:38,15.08854704,0.0001493,53.2176,177.8773,78.1597,281.9563,8.5345e-05,1.071e-05,0.0,0 STARLINK-3788,1 52271U 22041L   24062.63656234  .00001071  00000-0  85345-4 0  9993,2 52271  53.2176 177.8773 0001493  78.1597 281.9563 15.08854704104312,6917.835,95.437,540.733,538.668,0.0
52271.0,STARLINK-3788,PAYLOAD,2024-03-03 00:48:58,15.08842427,0.0001436,53.2169,176.097,77.8807,282.2346,8.4745e-05,1.061e-05,0.0,0 STARLINK-3788,1 52271U 22041L   24063.03400841  .00001061  00000-0  84745-4 0  9991,2 52271  53.2169 176.0970 0001436  77.8807 282.2346 15.08842427104379,6917.873,95.437,540.731,538.745,0.0
52271.0,STARLINK-3788,PAYLOAD,2024-03-03 13:32:03,15.08838987,0.0001709,53.2175,173.717,72.9533,287.1647,8.256e-07,-2.75e-06,0.0,0 STARLINK-3788,1 52271U 22041L   24063.56393471 -.00000275  00000-0  82560-6 0  9991,2 52271  53.2175 173.7170 0001709  72.9533 287.1647 15.08838987103235,6917.883,95.438,540.931,538.566,0.0
52271.0,STARLINK-3788,PAYLOAD,2024-03-04 11:47:25,15.08863815,0.000143,53.2166,169.5545,78.0585,282.0567,6.0174e-05,6.7e-06,0.0,0 STARLINK-3788,1 52271U 22041L   24064.49127221  .00000670  00000-0  60174-4 0  9995,2 52271  53.2166 169.5545 0001430  78.0585 282.0567 15.08863815104592,6917.808,95.436,540.662,538.683,0.0
52271.0,STARLINK-3788,PAYLOAD,2024-03-04 13:22:48,15.08866379,0.000169,53.2183,169.2563,80.6276,279.4907,9.5928e-05,1.24e-05,0.0,0 STARLINK-3788,1 52271U 22041L   24064.55750906  .00001240  00000-0  95928-4 0  9993,2 52271  53.2183 169.2563 0001690  80.6276 279.4907 15.08866379103384,6917.8,95.436,540.834,538.496,0.0
52271.0,STARLINK-3788,PAYLOAD,2024-03-05 00:30:31,15.08844193,0.0001688,53.2181,167.1738,79.6558,280.4624,3.8107e-05,3.19e-06,0.0,0 STARLINK-3788,1 52271U 22041L   24065.02120213  .00000319  00000-0  38107-4 0  9990,2 52271  53.2181 167.1738 0001688  79.6558 280.4624 15.08844193104672,6917.868,95.437,540.9,538.565,0.0
52271.0,STARLINK-3788,PAYLOAD,2024-03-05 13:13:38,15.08819094,0.0001656,53.217,164.7957,99.0557,261.0623,-0.00023734,-4.061e-05,0.0,0 STARLINK-3788,1 52271U 22041L   24065.55113941 -.00004061  00000-0 -23734-3 0  9997,2 52271  53.2170 164.7957 0001656  99.0557 261.0623 15.08819094103536,6917.944,95.439,540.955,538.664,0.0
52271.0,STARLINK-3788,PAYLOAD,2024-03-06 11:29:02,15.0883935,0.0001546,53.2168,160.6333,95.9706,264.1462,0.00020358,2.953e-05,0.0,0 STARLINK-3788,1 52271U 22041L   24066.47849700  .00002953  00000-0  20358-3 0  9993,2 52271  53.2168 160.6333 0001546  95.9706 264.1462 15.08839350104897,6917.882,95.438,540.817,538.678,0.0
52271.0,STARLINK-3788,PAYLOAD,2024-03-06 13:04:25,15.08841557,0.000155,53.2169,160.3357,95.4318,264.6851,0.00053446,8.229e-05,0.0,0 STARLINK-3788,1 52271U 22041L   24066.54473903  .00008229  00000-0  53446-3 0  9995,2 52271  53.2169 160.3357 0001550  95.4318 264.6851 15.08841557103685,6917.876,95.437,540.813,538.668,0.0
52271.0,STARLINK-3788,PAYLOAD,2024-03-07 12:55:13,15.08833111,0.000141,53.2167,155.8743,97.2094,262.9058,0.0002379,3.5e-05,0.0,0 STARLINK-3788,1 52271U 22041L   24067.53834712  .00003500  00000-0  23790-3 0  9990,2 52271  53.2167 155.8743 0001410  97.2094 262.9058 15.08833111103831,6917.901,95.438,540.742,538.791,0.0
52271.0,STARLINK-3788,PAYLOAD,2024-03-08 12:45:59,15.08856959,0.0001457,53.2169,151.4134,102.6105,257.505,0.00028599,4.269e-05,0.0,0 STARLINK-3788,1 52271U 22041L   24068.53193482  .00004269  00000-0  28599-3 0  9998,2 52271  53.2169 151.4134 0001457 102.6105 257.5050 15.08856959105204,6917.829,95.436,540.701,538.686,0.0
52271.0,STARLINK-3788,PAYLOAD,2024-03-09 04:39:50,15.08844443,0.00014,53.2167,148.4418,105.4901,254.6246,0.00021166,3.083e-05,0.0,0 STARLINK-3788,1 52271U 22041L   24069.19433986  .00003083  00000-0  21166-3 0  9993,2 52271  53.2167 148.4418 0001400 105.4901 254.6246 15.08844443105307,6917.867,95.437,540.7,538.763,0.0
52271.0,STARLINK-3788,PAYLOAD,2024-03-09 11:01:23,15.08843989,9.39e-05,53.2162,147.2496,90.8184,269.2915,0.00018641,2.681e-05,0.0,0 STARLINK-3788,1 52271U 22041L   24069.45930135  .00002681  00000-0  18641-3 0  9997,2 52271  53.2162 147.2496 0000939  90.8184 269.2915 15.08843989104129,6917.868,95.437,540.383,539.084,0.0
52271.0,STARLINK-3788,PAYLOAD,2024-03-09 22:09:05,15.08848605,8.55e-05,53.2157,145.1666,92.1306,267.9784,0.00019801,2.866e-05,0.0,0 STARLINK-3788,1 52271U 22041L   24069.92297727  .00002866  00000-0  19801-3 0  9996,2 52271  53.2157 145.1666 0000855  92.1306 267.9784 15.08848605104193,6917.854,95.437,540.311,539.128,0.0
52271.0,STARLINK-3788,PAYLOAD,2024-03-10 04:30:39,15.08805068,6.31e-05,53.2153,143.9772,102.2093,257.897,-0.00050312,-8.278e-05,0.0,0 STARLINK-3788,1 52271U 22041L   24070.18795802 -.00008278  00000-0 -50312-3 0  9990,2 52271  53.2153 143.9772 0000631 102.2093 257.8970 15.08805068105452,6917.987,95.44,540.289,539.416,0.0
52271.0,STARLINK-3788,PAYLOAD,2024-03-10 12:27:33,15.08839402,0.0001314,53.2157,142.4911,103.8489,256.2649,3.3067e-05,2.38e-06,0.0,0 STARLINK-3788,1 52271U 22041L   24070.51914310  .00000238  00000-0  33067-4 0  9999,2 52271  53.2157 142.4911 0001314 103.8489 256.2649 15.08839402105501,6917.882,95.438,540.656,538.838,0.0
52271.0,STARLINK-3788,PAYLOAD,2024-03-10 21:59:52,15.0884461,0.0001365,53.2163,140.7084,86.2933,273.8215,0.00014872,2.08e-05,0.0,0 STARLINK-3788,1 52271U 22041L   24070.91658310  .00002080  00000-0  14872-3 0  9997,2 52271  53.2163 140.7084 0001365  86.2933 273.8215 15.08844610104346,6917.866,95.437,540.676,538.787,0.0
52271.0,STARLINK-3788,PAYLOAD,2024-03-11 10:42:58,15.08843343,0.0001499,53.2162,138.3309,86.3936,273.7228,0.00024799,3.661e-05,0.0,0 STARLINK-3788,1 52271U 22041L   24071.44650528  .00003661  00000-0  24799-3 0  9994,2 52271  53.2162 138.3309 0001499  86.3936 273.7228 15.08843343104424,6917.87,95.437,540.772,538.698,0.0
52271.0,STARLINK-3788,PAYLOAD,2024-03-12 04:12:12,15.0884265,0.0001435,53.2156,135.0586,91.6053,268.5104,0.00045949,7.033e-05,0.0,0 STARLINK-3788,1 52271U 22041L   24072.17514639  .00007033  00000-0  45949-3 0  9994,2 52271  53.2156 135.0586 0001435  91.6053 268.5104 15.08842650105759,6917.872,95.437,540.73,538.745,0.0
52271.0,STARLINK-3788,PAYLOAD,2024-03-12 10:33:45,15.08841407,0.0001344,53.2153,133.8681,96.38,263.7346,0.00029801,4.458e-05,0.0,0 STARLINK-3788,1 52271U 22041L   24072.44010583  .00004458  00000-0  29801-3 0  9990,2 52271  53.2153 133.8681 0001344  96.3800 263.7346 15.08841407104572,6917.876,95.437,540.671,538.811,0.0
52271.0,STARLINK-3788,PAYLOAD,2024-03-13 10:24:32,15.08840837,0.0001267,53.2146,129.4084,89.938,270.1757,0.00021875,3.195e-05,0.0,0 STARLINK-3788,1 52271U 22041L   24073.43370434  .00003195  00000-0  21875-3 0  9994,2 52271  53.2146 129.4084 0001267  89.9380 270.1757 15.08840837105943,6917.878,95.438,540.619,538.866,0.0
52271.0,STARLINK-3788,PAYLOAD,2024-03-14 03:53:46,15.08844726,0.000132,53.2143,126.1384,88.1119,272.0024,0.00016108,2.277e-05,0.0,0 STARLINK-3788,1 52271U 22041L   24074.16233993  .00002277  00000-0  16108-3 0  9996,2 52271  53.2143 126.1384 0001320  88.1119 272.0024 15.08844726104834,6917.866,95.437,540.644,538.818,0.0
52271.0,STARLINK-3788,PAYLOAD,2024-03-14 10:15:18,15.08841676,0.0001308,53.2155,124.9467,92.7357,267.3785,9.7208e-05,1.26e-05,0.0,0 STARLINK-3788,1 52271U 22041L   24074.42730088  .00001260  00000-0  97208-4 0  9994,2 52271  53.2155 124.9467 0001308  92.7357 267.3785 15.08841676104872,6917.875,95.437,540.645,538.835,0.0
